[{"OBJECT_NAME":"CYGFM05","OBJECT_ID":"2016-078A","EPOCH":"2026-03-09T18:21:08.670816","MEAN_MOTION":15.52187266,"ECCENTRICITY":0.00070889,"INCLINATION":34.9569,"RA_OF_ASC_NODE":196.7903,"ARG_OF_PERICENTER":287.0892,"MEAN_ANOMALY":72.9055,"EPHEMERIS_TYPE":0,"CLASSIFICATION_TYPE":"U","NORAD_CAT_ID":41884,"ELEMENT_SET_NO":999,"REV_AT_EPOCH":51327,"BSTAR":0.00043170969,"MEAN_MOTION_DOT":0.00027059,"MEAN_MOTION_DDOT":0},{"OBJECT_NAME":"OUTPOST MISSION 2","OBJECT_ID":"2023-174CG","EPOCH":"2026-03-09T22:51:56.861280","MEAN_MOTION":15.50733673,"ECCENTRICITY":0.00069991,"INCLINATION":97.3967,"RA_OF_ASC_NODE":158.6721,"ARG_OF_PERICENTER":123.0505,"MEAN_ANOMALY":237.142,"EPHEMERIS_TYPE":0,"CLASSIFICATION_TYPE":"U","NORAD_CAT_ID":58334,"ELEMENT_SET_NO":999,"REV_AT_EPOCH":13041,"BSTAR":0.00067138638,"MEAN_MOTION_DOT":0.00038683,"MEAN_MOTION_DDOT":0}]
